{
  "type": "FeatureCollection",
  "features": [
    {
      "type": "Feature",
      "properties": {
        "norad_id": 30172,
        "name": "FENGYUN 1C DEB",
        "group": "fengyun-1c-debris",
        "lat": 61.44086147954956,
        "lon": 154.96233877349061,
        "alt_km": 860.1041512736992,
        "timestamp": "2025-12-04T17:48:40.440241+00:00",
        "meta_object_name": "FENGYUN 1C DEB",
        "meta_object_id": "1999-025UD",
        "meta_epoch": "2025-12-03T21:07:20.315136",
        "meta_mean_motion": 14.12391513,
        "meta_eccentricity": 0.00689869,
        "meta_inclination": 99.2335,
        "meta_ra_of_asc_node": 316.6854,
        "meta_arg_of_pericenter": 227.3339,
        "meta_mean_anomaly": 189.7882,
        "meta_ephemeris_type": 0,
        "meta_classification_type": "U",
        "meta_norad_cat_id": 30172,
        "meta_element_set_no": 999,
        "meta_rev_at_epoch": 96392,
        "meta_bstar": 0.0021209347,
        "meta_mean_motion_dot": 3.954e-05,
        "meta_mean_motion_ddot": 0,
        "tle_line1": "1 30172U 99025UD  25337.88009624  .00003954  00000+0  21209-2 0  9991",
        "tle_line2": "2 30172  99.2335 316.6854 0068986 227.3339 189.7882 14.12391513963927"
      },
      "geometry": {
        "type": "Point",
        "coordinates": [
          154.96233877349061,
          61.44086147954956
        ]
      }
    },
    {
      "type": "Feature",
      "properties": {
        "norad_id": 30173,
        "name": "FENGYUN 1C DEB",
        "group": "fengyun-1c-debris",
        "lat": 64.00568240552384,
        "lon": -111.57919565679889,
        "alt_km": 903.669569777795,
        "timestamp": "2025-12-04T17:48:40.440251+00:00",
        "meta_object_name": "FENGYUN 1C DEB",
        "meta_object_id": "1999-025UE",
        "meta_epoch": "2025-12-02T04:16:36.503328",
        "meta_mean_motion": 14.11292894,
        "meta_eccentricity": 0.00797398,
        "meta_inclination": 98.9782,
        "meta_ra_of_asc_node": 46.9388,
        "meta_arg_of_pericenter": 318.882,
        "meta_mean_anomaly": 95.9853,
        "meta_ephemeris_type": 0,
        "meta_classification_type": "U",
        "meta_norad_cat_id": 30173,
        "meta_element_set_no": 999,
        "meta_rev_at_epoch": 96400,
        "meta_bstar": 0.0015712939,
        "meta_mean_motion_dot": 2.88e-05,
        "meta_mean_motion_ddot": 0,
        "tle_line1": "1 30173U 99025UE  25336.17820027  .00002880  00000+0  15713-2 0  9991",
        "tle_line2": "2 30173  98.9782  46.9388 0079739 318.8820  95.9853 14.11292894964001"
      },
      "geometry": {
        "type": "Point",
        "coordinates": [
          -111.57919565679889,
          64.00568240552384
        ]
      }
    },
    {
      "type": "Feature",
      "properties": {
        "norad_id": 30174,
        "name": "FENGYUN 1C DEB",
        "group": "fengyun-1c-debris",
        "lat": -65.52119928841832,
        "lon": 146.66234154981248,
        "alt_km": 645.7804237685896,
        "timestamp": "2025-12-04T17:48:40.440262+00:00",
        "meta_object_name": "FENGYUN 1C DEB",
        "meta_object_id": "1999-025UF",
        "meta_epoch": "2025-12-04T05:33:38.745216",
        "meta_mean_motion": 14.80127672,
        "meta_eccentricity": 0.0017819,
        "meta_inclination": 98.7762,
        "meta_ra_of_asc_node": 126.2692,
        "meta_arg_of_pericenter": 77.3732,
        "meta_mean_anomaly": 17.4394,
        "meta_ephemeris_type": 0,
        "meta_classification_type": "U",
        "meta_norad_cat_id": 30174,
        "meta_element_set_no": 999,
        "meta_rev_at_epoch": 98242,
        "meta_bstar": 0.011295271,
        "meta_mean_motion_dot": 0.00086945,
        "meta_mean_motion_ddot": 0,
        "tle_line1": "1 30174U 99025UF  25338.23169844  .00086945  00000+0  11295-1 0  9998",
        "tle_line2": "2 30174  98.7762 126.2692 0017819  77.3732  17.4394 14.80127672982420"
      },
      "geometry": {
        "type": "Point",
        "coordinates": [
          146.66234154981248,
          -65.52119928841832
        ]
      }
    },
    {
      "type": "Feature",
      "properties": {
        "norad_id": 30175,
        "name": "FENGYUN 1C DEB",
        "group": "fengyun-1c-debris",
        "lat": -80.51560919713475,
        "lon": 116.57206873726106,
        "alt_km": 872.0027381486043,
        "timestamp": "2025-12-04T17:48:40.440272+00:00",
        "meta_object_name": "FENGYUN 1C DEB",
        "meta_object_id": "1999-025UG",
        "meta_epoch": "2025-12-04T02:45:50.346720",
        "meta_mean_motion": 13.83854116,
        "meta_eccentricity": 0.01459787,
        "meta_inclination": 99.3822,
        "meta_ra_of_asc_node": 34.2016,
        "meta_arg_of_pericenter": 235.6055,
        "meta_mean_anomaly": 152.9312,
        "meta_ephemeris_type": 0,
        "meta_classification_type": "U",
        "meta_norad_cat_id": 30175,
        "meta_element_set_no": 999,
        "meta_rev_at_epoch": 95221,
        "meta_bstar": 0.00068523763,
        "meta_mean_motion_dot": 7.79e-06,
        "meta_mean_motion_ddot": 0,
        "tle_line1": "1 30175U 99025UG  25338.11516605  .00000779  00000+0  68524-3 0  9997",
        "tle_line2": "2 30175  99.3822  34.2016 0145978 235.6055 152.9312 13.83854116952219"
      },
      "geometry": {
        "type": "Point",
        "coordinates": [
          116.57206873726106,
          -80.51560919713475
        ]
      }
    },
    {
      "type": "Feature",
      "properties": {
        "norad_id": 30177,
        "name": "FENGYUN 1C DEB",
        "group": "fengyun-1c-debris",
        "lat": -39.236557521464654,
        "lon": -69.60487407154254,
        "alt_km": 1345.8941197859886,
        "timestamp": "2025-12-04T17:48:40.440282+00:00",
        "meta_object_name": "FENGYUN 1C DEB",
        "meta_object_id": "1999-025UJ",
        "meta_epoch": "2025-12-03T07:31:58.711872",
        "meta_mean_motion": 13.62783339,
        "meta_eccentricity": 0.0451209,
        "meta_inclination": 98.6255,
        "meta_ra_of_asc_node": 282.005,
        "meta_arg_of_pericenter": 163.2342,
        "meta_mean_anomaly": 352.0071,
        "meta_ephemeris_type": 0,
        "meta_classification_type": "U",
        "meta_norad_cat_id": 30177,
        "meta_element_set_no": 999,
        "meta_rev_at_epoch": 93334,
        "meta_bstar": 0.000831,
        "meta_mean_motion_dot": 1.255e-05,
        "meta_mean_motion_ddot": 0,
        "tle_line1": "1 30177U 99025UJ  25337.31387398  .00001255  00000+0  83100-3 0  9992",
        "tle_line2": "2 30177  98.6255 282.0050 0451209 163.2342 352.0071 13.62783339933349"
      },
      "geometry": {
        "type": "Point",
        "coordinates": [
          -69.60487407154254,
          -39.236557521464654
        ]
      }
    },
    {
      "type": "Feature",
      "properties": {
        "norad_id": 30178,
        "name": "FENGYUN 1C DEB",
        "group": "fengyun-1c-debris",
        "lat": -35.491802753170276,
        "lon": -140.89046139928556,
        "alt_km": 1254.5996584975728,
        "timestamp": "2025-12-04T17:48:40.440292+00:00",
        "meta_object_name": "FENGYUN 1C DEB",
        "meta_object_id": "1999-025UK",
        "meta_epoch": "2025-12-04T06:13:58.022976",
        "meta_mean_motion": 13.5865183,
        "meta_eccentricity": 0.02804409,
        "meta_inclination": 102.2601,
        "meta_ra_of_asc_node": 209.5883,
        "meta_arg_of_pericenter": 146.6455,
        "meta_mean_anomaly": 338.3226,
        "meta_ephemeris_type": 0,
        "meta_classification_type": "U",
        "meta_norad_cat_id": 30178,
        "meta_element_set_no": 999,
        "meta_rev_at_epoch": 93056,
        "meta_bstar": 0.0022347919,
        "meta_mean_motion_dot": 2.049e-05,
        "meta_mean_motion_ddot": 0,
        "tle_line1": "1 30178U 99025UK  25338.25969934  .00002049  00000+0  22348-2 0  9997",
        "tle_line2": "2 30178 102.2601 209.5883 0280440 146.6455 338.3226 13.58651830930567"
      },
      "geometry": {
        "type": "Point",
        "coordinates": [
          -140.89046139928556,
          -35.491802753170276
        ]
      }
    },
    {
      "type": "Feature",
      "properties": {
        "norad_id": 30181,
        "name": "FENGYUN 1C DEB",
        "group": "fengyun-1c-debris",
        "lat": 67.46166214921496,
        "lon": 39.79826099174286,
        "alt_km": 767.3991059735199,
        "timestamp": "2025-12-04T17:48:40.440302+00:00",
        "meta_object_name": "FENGYUN 1C DEB",
        "meta_object_id": "1999-025UN",
        "meta_epoch": "2025-12-03T04:40:29.934624",
        "meta_mean_motion": 14.29123512,
        "meta_eccentricity": 0.00404298,
        "meta_inclination": 98.8444,
        "meta_ra_of_asc_node": 60.2648,
        "meta_arg_of_pericenter": 28.8475,
        "meta_mean_anomaly": 3.6698,
        "meta_ephemeris_type": 0,
        "meta_classification_type": "U",
        "meta_norad_cat_id": 30181,
        "meta_element_set_no": 999,
        "meta_rev_at_epoch": 97375,
        "meta_bstar": 0.0020580366,
        "meta_mean_motion_dot": 5.223e-05,
        "meta_mean_motion_ddot": 0,
        "tle_line1": "1 30181U 99025UN  25337.19479091  .00005223  00000+0  20580-2 0  9996",
        "tle_line2": "2 30181  98.8444  60.2648 0040429  28.8475   3.6698 14.29123512973754"
      },
      "geometry": {
        "type": "Point",
        "coordinates": [
          39.79826099174286,
          67.46166214921496
        ]
      }
    }
  ]
}